NORAD_CAT_ID,OBJECT_NAME,OBJECT_TYPE,EPOCH,MEAN_MOTION,ECCENTRICITY,INCLINATION,RA_OF_ASC_NODE,ARG_OF_PERICENTER,MEAN_ANOMALY,BSTAR,MEAN_MOTION_DOT,MEAN_MOTION_DDOT,TLE_LINE0,TLE_LINE1,TLE_LINE2,SEMIMAJOR_AXIS,PERIOD,APOGEE,PERIGEE,DECAYED
49413.0,STARLINK-3157,PAYLOAD,2022-05-03 14:00:01,15.08818562,0.0001997,53.2168,51.3896,34.4111,65.805,0.0017992999999999,0.00028447,0.0,0 STARLINK-3157,1 49413U 21104F   22123.58334491  .00028447  00000-0  17993-2 0  9992,2 49413  53.2168  51.3896 0001997  34.4111  65.8050 15.08818562 27591,6917.946,95.439,541.192,538.429,0.0
49413.0,STARLINK-3157,PAYLOAD,2022-05-03 22:00:00,15.08859318,0.0002046,53.2168,49.894,36.5084,75.2851,-0.0010083,-0.00016308,0.0,0 STARLINK-3157,1 49413U 21104F   22123.91667824 -.00016308  00000-0 -10083-2 0  9996,2 49413  53.2168  49.8940 0002046  36.5084  75.2851 15.08859318  3571,6917.821,95.436,541.102,538.271,0.0
49413.0,STARLINK-3157,PAYLOAD,2022-05-04 14:00:01,15.08831353,0.0002049,53.2162,46.9007,39.0198,96.0118,0.0017779,0.00028114,0.0,0 STARLINK-3157,1 49413U 21104F   22124.58334491  .00028114  00000-0  17779-2 0  9996,2 49413  53.2162  46.9007 0002049  39.0198  96.0118 15.08831353 27745,6917.906999999997,95.438,541.189,538.354,0.0
49413.0,STARLINK-3157,PAYLOAD,2022-05-04 22:00:01,15.08878988,0.0002119,53.2163,45.4049,40.9416,105.7423,-0.0030896,-0.00049178,0.0,0 STARLINK-3157,1 49413U 21104F   22124.91668981 -.00049178  00000-0 -30896-2 0  9997,2 49413  53.2163  45.4049 0002119  40.9416 105.7423 15.08878988  3609,6917.761,95.435,541.092,538.16,0.0
49413.0,STARLINK-3157,PAYLOAD,2022-05-05 06:00:00,15.08817685,0.0002228,53.2158,43.9097,35.3875,122.8622,0.0031206,0.00049697,0.0,0 STARLINK-3157,1 49413U 21104F   22125.25001157  .00049697  00000-0  31206-2 0  9991,2 49413  53.2158  43.9097 0002228  35.3875 122.8622 15.08817685 27847,6917.949000000001,95.439,541.355,538.2719999999998,0.0
49413.0,STARLINK-3157,PAYLOAD,2022-05-05 14:00:01,15.08823832,0.0002003,53.2158,42.4115,37.4581,132.3884,0.00047004,7.197e-05,0.0,0 STARLINK-3157,1 49413U 21104F   22125.58334491  .00007197  00000-0  47004-3 0  9990,2 49413  53.2158  42.4115 0002003  37.4581 132.3884 15.08823832 27892,6917.93,95.439,541.18,538.409,0.0
49413.0,STARLINK-3157,PAYLOAD,2022-05-05 22:00:00,15.08842904,0.0002085,53.2159,40.916,38.1859,143.2358,-0.0010251,-0.00016567,0.0,0 STARLINK-3157,1 49413U 21104F   22125.91667824 -.00016567  00000-0 -10251-2 0  9992,2 49413  53.2159  40.9160 0002085  38.1859 143.2358 15.08842904  3568,6917.871999999999,95.437,541.179,538.294,0.0
49413.0,STARLINK-3157,PAYLOAD,2022-05-06 14:00:01,15.08804311,0.0001987,53.2157,37.9222,35.7617,168.8514,0.0023144,0.00036702,0.0,0 STARLINK-3157,1 49413U 21104F   22126.58334491  .00036702  00000-0  23144-2 0  9993,2 49413  53.2157  37.9222 0001987  35.7617 168.8514 15.08804311  3619,6917.989000000001,95.44,541.229,538.48,0.0
49413.0,STARLINK-3157,PAYLOAD,2022-05-06 22:00:00,15.08843093,0.0002117,53.2159,36.4268,37.3564,178.8239,-0.0009593,-0.00015525,0.0,0 STARLINK-3157,1 49413U 21104F   22126.91667824 -.00015525  00000-0 -95930-3 0  9994,2 49413  53.2159  36.4268 0002117  37.3564 178.8239 15.08843093 28094,6917.871,95.437,541.2,538.271,0.0
49413.0,STARLINK-3157,PAYLOAD,2022-05-07 14:00:01,15.08803728,0.0002149,53.2173,33.4167,37.7875,201.5836,0.0032667,0.00052035,0.0,0 STARLINK-3157,1 49413U 21104F   22127.58334491  .00052035  00000-0  32667-2 0  9991,2 49413  53.2173  33.4167 0002149  37.7875 201.5836 15.08803728  3607,6917.991,95.44,541.3430000000002,538.37,0.0
49413.0,STARLINK-3157,PAYLOAD,2022-05-07 22:00:00,15.08844733,0.0002162,53.2162,31.9375,36.5802,214.4011,-0.00099193,-0.00016043,0.0,0 STARLINK-3157,1 49413U 21104F   22127.91667824 -.00016043  00000-0 -99193-3 0  9996,2 49413  53.2162  31.9375 0002162  36.5802 214.4011 15.08844733 28247,6917.866,95.437,541.227,538.235,0.0
49413.0,STARLINK-3157,PAYLOAD,2022-05-08 14:00:01,15.08803011,0.0002035,53.2164,28.9434,35.4794,238.6987,0.0029264,0.00046547,0.0,0 STARLINK-3157,1 49413U 21104F   22128.58334491  .00046547  00000-0  29264-2 0  9992,2 49413  53.2164  28.9434 0002035  35.4794 238.6987 15.08803011  3605,6917.993,95.44,541.266,538.451,0.0
49413.0,STARLINK-3157,PAYLOAD,2022-05-08 22:00:00,15.08843622,0.0002174,53.2167,27.4482,35.521,250.2268,-0.00084085,-0.00013647,0.0,0 STARLINK-3157,1 49413U 21104F   22128.91667824 -.00013647  00000-0 -84085-3 0  9998,2 49413  53.2167  27.4482 0002174  35.5210 250.2268 15.08843622 28390,6917.869000000002,95.437,541.238,538.23,0.0
49413.0,STARLINK-3157,PAYLOAD,2022-05-09 14:00:01,15.08841287,0.0002033,53.2169,24.4541,36.6047,272.4118,0.00078685,0.00012257,0.0,0 STARLINK-3157,1 49413U 21104F   22129.58335648  .00012257  00000-0  78685-3 0  9991,2 49413  53.2169  24.4541 0002033  36.6047 272.4118 15.08841287 28495,6917.876,95.437,541.148,538.335,0.0
49413.0,STARLINK-3157,PAYLOAD,2022-05-09 22:00:00,15.08850052,0.000213,53.217,22.9591,34.3387,286.2178,-0.0006805,-0.00011105,0.0,0 STARLINK-3157,1 49413U 21104F   22129.91667824 -.00011105  00000-0 -68050-3 0  9990,2 49413  53.2170  22.9591 0002130  34.3387 286.2178 15.08850052  3598,6917.85,95.437,541.188,538.241,0.0
49413.0,STARLINK-3157,PAYLOAD,2022-05-10 14:00:01,15.08814331,0.0001945,53.2169,19.965,35.77,307.9882,0.0015370999999999,0.00024243,0.0,0 STARLINK-3157,1 49413U 21104F   22130.58334491  .00024243  00000-0  15371-2 0  9998,2 49413  53.2169  19.9650 0001945  35.7700 307.9882 15.08814331 28641,6917.959,95.439,541.169,538.4780000000002,0.0
49413.0,STARLINK-3157,PAYLOAD,2022-05-10 20:25:54,15.08834927,0.0002071,53.2178,18.7637,37.7896,322.3242,2.1923000000000007e-05,6.1e-07,0.0,0 STARLINK-3157,1 49413U 21104F   22130.85132171  .00000061  00000-0  21923-4 0  9993,2 49413  53.2178  18.7637 0002071  37.7896 322.3242 15.08834927 27599,6917.896,95.438,541.194,538.328,0.0
49413.0,STARLINK-3157,PAYLOAD,2022-05-11 22:00:00,15.08845523,0.0002192,53.2166,13.9815,38.9291,351.1264,-0.00077794,-0.0001264999999999,0.0,0 STARLINK-3157,1 49413U 21104F   22131.91667824 -.00012650  00000-0 -77794-3 0  9994,2 49413  53.2166  13.9815 0002192  38.9291 351.1264 15.08845523 28855,6917.864000000001,95.437,541.245,538.212,0.0
49413.0,STARLINK-3157,PAYLOAD,2022-05-12 14:00:01,15.08851199,0.000201,53.2162,10.9872,41.8891,11.3763,0.00071239,0.00011071,0.0,0 STARLINK-3157,1 49413U 21104F   22132.58334491  .00011071  00000-0  71239-3 0  9991,2 49413  53.2162  10.9872 0002010  41.8891  11.3763 15.08851199  1305,6917.846,95.437,541.102,538.321,0.0
49413.0,STARLINK-3157,PAYLOAD,2022-05-12 20:00:01,15.08861929,0.0002086,53.2164,9.8662,39.6827,292.2965,-0.0014725,-0.00023661,0.0,0 STARLINK-3157,1 49413U 21104F   22132.83334491 -.00023661  00000-0 -14725-2 0  9995,2 49413  53.2164   9.8662 0002086  39.6827 292.2965 15.08861929 28987,6917.813,95.436,541.121,538.235,0.0
49413.0,STARLINK-3157,PAYLOAD,2022-05-12 22:00:00,15.08850902,0.0002147,53.2162,9.4926,38.2819,26.6034,-0.00029455,-4.975e-05,0.0,0 STARLINK-3157,1 49413U 21104F   22132.91667824 -.00004975  00000-0 -29455-3 0  9997,2 49413  53.2162   9.4926 0002147  38.2819  26.6034 15.08850902  1300,6917.847,95.437,541.197,538.227,0.0
49413.0,STARLINK-3157,PAYLOAD,2022-05-13 14:00:01,15.08824397,0.0002002,53.2159,6.4979999999999976,41.1262,46.9706,0.00046257,7.078e-05,0.0,0 STARLINK-3157,1 49413U 21104F   22133.58334491  .00007078  00000-0  46257-3 0  9996,2 49413  53.2159   6.4980 0002002  41.1262  46.9706 15.08824397  1308,6917.928000000001,95.439,541.178,538.408,0.0
49413.0,STARLINK-3157,PAYLOAD,2022-05-13 22:00:00,15.08826025,0.0002234,53.2159,5.0035,39.539,60.1383,-0.00024975,-4.259e-05,0.0,0 STARLINK-3157,1 49413U 21104F   22133.91667824 -.00004259  00000-0 -24975-3 0  9995,2 49413  53.2159   5.0035 0002234  39.5390  60.1383 15.08826025 29156,6917.9230000000025,95.438,541.3340000000002,538.243,0.0
49413.0,STARLINK-3157,PAYLOAD,2022-05-14 14:00:01,15.08846567,0.0002072,53.2159,2.0089,42.058,80.7995,0.00019091,2.752e-05,0.0,0 STARLINK-3157,1 49413U 21104F   22134.58334491  .00002752  00000-0  19091-3 0  9997,2 49413  53.2159   2.0089 0002072  42.0580  80.7995 15.08846567 29253,6917.86,95.437,541.159,538.2919999999998,0.0
49413.0,STARLINK-3157,PAYLOAD,2022-05-14 22:00:00,15.08838643,0.0002242,53.2159,0.5143,37.8359,96.6248,0.00037665,5.711e-05,0.0,0 STARLINK-3157,1 49413U 21104F   22134.91667824  .00005711  00000-0  37665-3 0  9998,2 49413  53.2159   0.5143 0002242  37.8359  96.6248 15.08838643  1301,6917.885,95.438,541.3009999999998,538.1990000000002,0.0
49413.0,STARLINK-3157,PAYLOAD,2022-05-15 14:00:01,15.08842426,0.0002025,53.2166,357.5079,40.329,117.3541,-0.0056336,-0.00088851,0.0,0 STARLINK-3157,1 49413U 21104F   22135.58335648 -.00088851  00000-0 -56336-2 0  9991,2 49413  53.2166 357.5079 0002025  40.3290 117.3541 15.08842426 29406,6917.873000000001,95.437,541.139,538.337,0.0
49413.0,STARLINK-3157,PAYLOAD,2022-05-15 22:00:00,15.08860556,0.000222,53.2161,356.025,35.1155,134.1091,-0.0022158,-0.00035401,0.0,0 STARLINK-3157,1 49413U 21104F   22135.91667824 -.00035401  00000-0 -22158-2 0  9990,2 49413  53.2161 356.0250 0002220  35.1155 134.1091 15.08860556 29451,6917.818,95.436,541.2180000000002,538.1469999999998,0.0
49413.0,STARLINK-3157,PAYLOAD,2022-05-16 14:00:01,15.08827365,0.000214,53.2164,353.0302,42.1452,150.2694,-0.00056307,-9.235e-05,0.0,0 STARLINK-3157,1 49413U 21104F   22136.58334491 -.00009235  00000-0 -56307-3 0  9995,2 49413  53.2164 353.0302 0002140  42.1452 150.2694 15.08827365  1301,6917.919,95.438,541.264,538.304,0.0
49413.0,STARLINK-3157,PAYLOAD,2022-05-16 22:00:00,15.08805777,0.0002388,53.2163,351.5355,39.4494,164.5454,0.0012722,0.00019998,0.0,0 STARLINK-3157,1 49413U 21104F   22136.91667824  .00019998  00000-0  12722-2 0  9998,2 49413  53.2163 351.5355 0002388  39.4494 164.5454 15.08805777 29608,6917.985,95.44,541.502,538.198,0.0
